[{"OBJECT_NAME":"DMC3-FM3","OBJECT_ID":"2015-032C","EPOCH":"2026-03-09T21:48:11.769120","MEAN_MOTION":14.85615899,"ECCENTRICITY":0.00062793,"INCLINATION":97.6715,"RA_OF_ASC_NODE":301.0907,"ARG_OF_PERICENTER":37.2551,"MEAN_ANOMALY":322.9099,"EPHEMERIS_TYPE":0,"CLASSIFICATION_TYPE":"U","NORAD_CAT_ID":40717,"ELEMENT_SET_NO":999,"REV_AT_EPOCH":57517,"BSTAR":0.00010183119,"MEAN_MOTION_DOT":8.3e-6,"MEAN_MOTION_DDOT":0},{"OBJECT_NAME":"COSMOS 2251 DEB","OBJECT_ID":"1993-036AEC","EPOCH":"2026-03-07T09:19:59.510208","MEAN_MOTION":14.7457939,"ECCENTRICITY":0.00772626,"INCLINATION":74.0173,"RA_OF_ASC_NODE":304.2149,"ARG_OF_PERICENTER":67.7037,"MEAN_ANOMALY":293.2304,"EPHEMERIS_TYPE":0,"CLASSIFICATION_TYPE":"U","NORAD_CAT_ID":34949,"ELEMENT_SET_NO":999,"REV_AT_EPOCH":89609,"BSTAR":0.00052874464,"MEAN_MOTION_DOT":3.663e-5,"MEAN_MOTION_DDOT":0}]
